{"fetched_at":"2026-03-30T06:02:59Z","count":15439,"tles":[{"name":"STARLINK-33800","line1":"1 63576U 25076H   26087.39692471  .00023520  00000+0  86116-3 0  9997","line2":"2 63576  42.9971 215.8534 0000968 258.7454 101.3289 15.27592944 54693","category":"Starlink"}]}