{
  "norad_id": 63576,
  "name": "STARLINK-33800",
  "history": [
    {
      "epoch": "2026-03-28T09:31:34.294944Z",
      "apogee_km": 483.67490805185207,
      "perigee_km": 482.3457665896667,
      "latitude_deg": 1.9150181902442698e-05,
      "longitude_deg": -112.85743775199704,
      "height_km": 482.91601135890045,
      "semi_major_axis_km": 6861.147337320759,
      "eccentricity": 9.686e-05,
      "inclination_deg": 42.9971,
      "raan_deg": 215.8534,
      "arg_perigee_deg": 258.7454,
      "mean_anomaly_deg": 101.3289,
      "mean_motion_rev_day": 15.27592944
    }
  ]
}